CCSDS_OMM_VERS = 2.0
CREATION_DATE  = 
ORIGINATOR     = 

OBJECT_NAME    = XRISM
OBJECT_ID      = 2023-137A
CENTER_NAME    = EARTH
REF_FRAME      = TEME
TIME_SYSTEM    = UTC
MEAN_ELEMENT_THEORY = SGP/SGP4

EPOCH          = 2026-03-30T10:34:33.589920
MEAN_MOTION    = 15.11742655
ECCENTRICITY   = .0007962
INCLINATION    = 31.0018
RA_OF_ASC_NODE = 149.4202
ARG_OF_PERICENTER = 247.7417
MEAN_ANOMALY   = 112.2377

EPHEMERIS_TYPE = 0
CLASSIFICATION_TYPE = U
NORAD_CAT_ID   = 57800
ELEMENT_SET_NO = 999
REV_AT_EPOCH   = 14093
BSTAR          = .41671E-3
MEAN_MOTION_DOT = .7385E-4
MEAN_MOTION_DDOT = 0

CCSDS_OMM_VERS = 2.0
CREATION_DATE  = 
ORIGINATOR     = 

OBJECT_NAME    = ACS3
OBJECT_ID      = 2024-077B
CENTER_NAME    = EARTH
REF_FRAME      = TEME
TIME_SYSTEM    = UTC
MEAN_ELEMENT_THEORY = SGP/SGP4

EPOCH          = 2026-03-30T12:22:57.213408
MEAN_MOTION    = 13.90577879
ECCENTRICITY   = .0072893
INCLINATION    = 97.1968
RA_OF_ASC_NODE = 25.9467
ARG_OF_PERICENTER = 29.2671
MEAN_ANOMALY   = 331.2548

EPHEMERIS_TYPE = 0
CLASSIFICATION_TYPE = U
NORAD_CAT_ID   = 59588
ELEMENT_SET_NO = 999
REV_AT_EPOCH   = 9709
BSTAR          = .20678E-1
MEAN_MOTION_DOT = .26365E-3
MEAN_MOTION_DDOT = 0

CCSDS_OMM_VERS = 2.0
CREATION_DATE  = 
ORIGINATOR     = 

OBJECT_NAME    = SZ-21 MODULE
OBJECT_ID      = 2025-246C
CENTER_NAME    = EARTH
REF_FRAME      = TEME
TIME_SYSTEM    = UTC
MEAN_ELEMENT_THEORY = SGP/SGP4

EPOCH          = 2026-03-30T07:26:18.451392
MEAN_MOTION    = 15.70166693
ECCENTRICITY   = .000202
INCLINATION    = 41.4738
RA_OF_ASC_NODE = 76.2734
ARG_OF_PERICENTER = 214.1142
MEAN_ANOMALY   = 145.9571

EPHEMERIS_TYPE = 0
CLASSIFICATION_TYPE = U
NORAD_CAT_ID   = 66515
ELEMENT_SET_NO = 999
REV_AT_EPOCH   = 2131
BSTAR          = .38893E-3
MEAN_MOTION_DOT = .48483E-3
MEAN_MOTION_DDOT = 0

